[{"OBJECT_NAME":"STARLINK-35635","OBJECT_ID":"2025-240R","EPOCH":"2026-03-09T06:34:38.166240","MEAN_MOTION":15.30188527,"ECCENTRICITY":0.00012187,"INCLINATION":53.1592,"RA_OF_ASC_NODE":64.826,"ARG_OF_PERICENTER":80.9954,"MEAN_ANOMALY":279.1185,"EPHEMERIS_TYPE":0,"CLASSIFICATION_TYPE":"U","NORAD_CAT_ID":66161,"ELEMENT_SET_NO":999,"REV_AT_EPOCH":2192,"BSTAR":0.00039263927,"MEAN_MOTION_DOT":0.00011283,"MEAN_MOTION_DDOT":0},{"OBJECT_NAME":"CZ-4B R\/B","OBJECT_ID":"2010-051C","EPOCH":"2026-03-09T16:48:37.977120","MEAN_MOTION":15.17426017,"ECCENTRICITY":0.00758037,"INCLINATION":97.7974,"RA_OF_ASC_NODE":110.8647,"ARG_OF_PERICENTER":95.044,"MEAN_ANOMALY":265.9451,"EPHEMERIS_TYPE":0,"CLASSIFICATION_TYPE":"U","NORAD_CAT_ID":37181,"ELEMENT_SET_NO":999,"REV_AT_EPOCH":84355,"BSTAR":0.00029718512,"MEAN_MOTION_DOT":6.328e-5,"MEAN_MOTION_DDOT":0}]
